start=new Date('2022-02-07T00:00:00.000Z').valueOf();
sats=[{"SITE":"AFETR","OBJECT_NAME":"STARLINK-1481","MEAN_MOTION_DOT":"-0.00002648","FILE":"3293822","RA_OF_ASC_NODE":"93.6118","RCS_SIZE":"LARGE","ECCENTRICITY":"0.00016710","ARG_OF_PERICENTER":"65.8634","PERIOD":"95.593","COUNTRY_CODE":"US","TLE_LINE1":"1 45742U 20038N   22037.87907841 -.00002648  00000-0 -15902-3 0  9995","MEAN_MOTION_DDOT":"0.0000000000000","REV_AT_EPOCH":"9133","EPHEMERIS_TYPE":"0","TLE_LINE2":"2 45742  53.0543  93.6118 0001671  65.8634 294.2529 15.06379593 91336","EPOCH":"2022-02-06T21:05:52.374624","APOAPSIS":"548.433","OBJECT_TYPE":"PAYLOAD","INCLINATION":"53.0543","LAUNCH_DATE":"2020-06-13","BSTAR":"-0.00015902000000","MEAN_MOTION":"15.06379593","DECAY_DATE":null,"OBJECT_ID":"2020-038N","CENTER_NAME":"EARTH","MEAN_ELEMENT_THEORY":"SGP4","TIME_SYSTEM":"UTC","PERIAPSIS":"546.119","ELEMENT_SET_NO":"999","MEAN_ANOMALY":"294.2529","REF_FRAME":"TEME","GP_ID":"195441543","CLASSIFICATION_TYPE":"U","NORAD_CAT_ID":"45742","SEMIMAJOR_AXIS":"6925.411"},{"PERIAPSIS":"546.032","TIME_SYSTEM":"UTC","ELEMENT_SET_NO":"999","MEAN_ANOMALY":"302.8163","CLASSIFICATION_TYPE":"U","GP_ID":"195440291","REF_FRAME":"TEME","SEMIMAJOR_AXIS":"6925.414","NORAD_CAT_ID":"45743","MEAN_MOTION":"15.06378613","LAUNCH_DATE":"2020-06-13","INCLINATION":"53.0540","BSTAR":"0.00012107000000","DECAY_DATE":null,"OBJECT_ID":"2020-038P","MEAN_ELEMENT_THEORY":"SGP4","CENTER_NAME":"EARTH","ARG_OF_PERICENTER":"57.2999","PERIOD":"95.593","TLE_LINE1":"1 45743U 20038P   22037.63213052  .00001521  00000-0  12107-3 0  9995","COUNTRY_CODE":"US","REV_AT_EPOCH":"9130","MEAN_MOTION_DDOT":"0.0000000000000","EPOCH":"2022-02-06T15:10:16.076928","TLE_LINE2":"2 45743  53.0540  94.5747 0001801  57.2999 302.8163 15.06378613 91305","EPHEMERIS_TYPE":"0","APOAPSIS":"548.526","OBJECT_TYPE":"PAYLOAD","SITE":"AFETR","MEAN_MOTION_DOT":"0.00001521","OBJECT_NAME":"STARLINK-1483","FILE":"3293822","RA_OF_ASC_NODE":"94.5747","RCS_SIZE":"LARGE","ECCENTRICITY":"0.00018010"},{"ECCENTRICITY":"0.00015950","SITE":"AFETR","MEAN_MOTION_DOT":"0.00000020","OBJECT_NAME":"STARLINK-1500","FILE":"3293822","RA_OF_ASC_NODE":"93.6657","RCS_SIZE":"LARGE","EPHEMERIS_TYPE":"0","EPOCH":"2022-02-06T20:49:55.823808","TLE_LINE2":"2 45744  53.0518  93.6657 0001595  64.8388 295.2766 15.06385653 91347","APOAPSIS":"548.362","OBJECT_TYPE":"PAYLOAD","ARG_OF_PERICENTER":"64.8388","PERIOD":"95.593","COUNTRY_CODE":"US","TLE_LINE1":"1 45744U 20038Q   22037.86800722  .00000020  00000-0  20245-4 0  9993","MEAN_MOTION_DDOT":"0.0000000000000","REV_AT_EPOCH":"9134","OBJECT_ID":"2020-038Q","MEAN_ELEMENT_THEORY":"SGP4","CENTER_NAME":"EARTH","LAUNCH_DATE":"2020-06-13","INCLINATION":"53.0518","BSTAR":"0.00002024500000","MEAN_MOTION":"15.06385653","DECAY_DATE":null,"GP_ID":"195440541","REF_FRAME":"TEME","CLASSIFICATION_TYPE":"U","NORAD_CAT_ID":"45744","SEMIMAJOR_AXIS":"6925.393","TIME_SYSTEM":"UTC","PERIAPSIS":"546.153","ELEMENT_SET_NO":"999","MEAN_ANOMALY":"295.2766"},{"MEAN_MOTION":"15.06432639","BSTAR":"0.00028122000000","LAUNCH_DATE":"2020-06-13","INCLINATION":"53.0538","DECAY_DATE":null,"CENTER_NAME":"EARTH","OBJECT_ID":"2020-038R","MEAN_ELEMENT_THEORY":"SGP4","ELEMENT_SET_NO":"999","MEAN_ANOMALY":"289.8078","PERIAPSIS":"545.679","TIME_SYSTEM":"UTC","CLASSIFICATION_TYPE":"U","GP_ID":"195441293","REF_FRAME":"TEME","SEMIMAJOR_AXIS":"6925.249","NORAD_CAT_ID":"45745","RA_OF_ASC_NODE":"93.7248","RCS_SIZE":"LARGE","SITE":"AFETR","MEAN_MOTION_DOT":"0.00003913","OBJECT_NAME":"STARLINK-1503","FILE":"3293822","ECCENTRICITY":"0.00020720","COUNTRY_CODE":"US","TLE_LINE1":"1 45745U 20038R   22037.85689951  .00003913  00000-0  28122-3 0  9997","REV_AT_EPOCH":"9133","MEAN_MOTION_DDOT":"0.0000000000000","PERIOD":"95.590","ARG_OF_PERICENTER":"70.3135","OBJECT_TYPE":"PAYLOAD","TLE_LINE2":"2 45745  53.0538  93.7248 0002072  70.3135 289.8078 15.06432639 91331","EPOCH":"2022-02-06T20:33:56.117664","EPHEMERIS_TYPE":"0","APOAPSIS":"548.548"},{"OBJECT_NAME":"STARLINK-1504","SITE":"AFETR","MEAN_MOTION_DOT":"-0.00005956","FILE":"3293822","RA_OF_ASC_NODE":"93.6427","RCS_SIZE":"LARGE","ECCENTRICITY":"0.00016020","PERIOD":"95.593","ARG_OF_PERICENTER":"56.5672","COUNTRY_CODE":"US","TLE_LINE1":"1 45746U 20038S   22037.87169350 -.00005956  00000-0 -38146-3 0  9994","REV_AT_EPOCH":"9133","MEAN_MOTION_DDOT":"0.0000000000000","EPOCH":"2022-02-06T20:55:14.318400","TLE_LINE2":"2 45746  53.0528  93.6427 0001602  56.5672 303.5470 15.06381084 91336","EPHEMERIS_TYPE":"0","APOAPSIS":"548.381","OBJECT_TYPE":"PAYLOAD","MEAN_MOTION":"15.06381084","INCLINATION":"53.0528","LAUNCH_DATE":"2020-06-13","BSTAR":"-0.00038146000000","DECAY_DATE":null,"CENTER_NAME":"EARTH","OBJECT_ID":"2020-038S","MEAN_ELEMENT_THEORY":"SGP4","PERIAPSIS":"546.162","TIME_SYSTEM":"UTC","ELEMENT_SET_NO":"999","MEAN_ANOMALY":"303.5470","CLASSIFICATION_TYPE":"U","GP_ID":"195442043","REF_FRAME":"TEME","SEMIMAJOR_AXIS":"6925.407","NORAD_CAT_ID":"45746"},{"FILE":"3293822","SITE":"AFETR","OBJECT_NAME":"STARLINK-1506","MEAN_MOTION_DOT":"0.00001160","RCS_SIZE":"LARGE","RA_OF_ASC_NODE":"93.6331","ECCENTRICITY":"0.00015830","PERIOD":"95.590","ARG_OF_PERICENTER":"60.1605","MEAN_MOTION_DDOT":"0.0000000000000","REV_AT_EPOCH":"9134","TLE_LINE1":"1 45747U 20038T   22037.87533603  .00001160  00000-0  96716-4 0  9990","COUNTRY_CODE":"US","APOAPSIS":"548.221","EPHEMERIS_TYPE":"0","TLE_LINE2":"2 45747  53.0547  93.6331 0001583  60.1605 299.9541 15.06428944 91342","EPOCH":"2022-02-06T21:00:29.032992","OBJECT_TYPE":"PAYLOAD","DECAY_DATE":null,"LAUNCH_DATE":"2020-06-13","INCLINATION":"53.0547","BSTAR":"0.00009671600000","MEAN_MOTION":"15.06428944","MEAN_ELEMENT_THEORY":"SGP4","OBJECT_ID":"2020-038T","CENTER_NAME":"EARTH","TIME_SYSTEM":"UTC","PERIAPSIS":"546.029","MEAN_ANOMALY":"299.9541","ELEMENT_SET_NO":"999","NORAD_CAT_ID":"45747","SEMIMAJOR_AXIS":"6925.260","GP_ID":"195440791","REF_FRAME":"TEME","CLASSIFICATION_TYPE":"U"},{"DECAY_DATE":null,"MEAN_MOTION":"15.06391597","INCLINATION":"53.0517","LAUNCH_DATE":"2020-06-13","BSTAR":"-0.00004008300000","OBJECT_ID":"2020-038U","MEAN_ELEMENT_THEORY":"SGP4","CENTER_NAME":"EARTH","PERIAPSIS":"546.169","TIME_SYSTEM":"UTC","MEAN_ANOMALY":"292.9887","ELEMENT_SET_NO":"999","SEMIMAJOR_AXIS":"6925.374","NORAD_CAT_ID":"45748","CLASSIFICATION_TYPE":"U","REF_FRAME":"TEME","GP_ID":"195441041","FILE":"3293822","SITE":"AFETR","OBJECT_NAME":"STARLINK-1507","MEAN_MOTION_DOT":"-0.00000878","RCS_SIZE":"LARGE","RA_OF_ASC_NODE":"93.7015","ECCENTRICITY":"0.00015460","ARG_OF_PERICENTER":"67.1265","PERIOD":"95.593","REV_AT_EPOCH":"9133","MEAN_MOTION_DDOT":"0.0000000000000","TLE_LINE1":"1 45748U 20038U   22037.86338070 -.00000878  00000-0 -40083-4 0  9994","COUNTRY_CODE":"US","APOAPSIS":"548.310","TLE_LINE2":"2 45748  53.0517  93.7015 0001546  67.1265 292.9887 15.06391597 91336","EPOCH":"2022-02-06T20:43:16.092480","EPHEMERIS_TYPE":"0","OBJECT_TYPE":"PAYLOAD"},{"RCS_SIZE":"LARGE","RA_OF_ASC_NODE":"73.8628","FILE":"3293822","SITE":"AFETR","OBJECT_NAME":"STARLINK-1391","MEAN_MOTION_DOT":"-0.00005082","ECCENTRICITY":"0.00015000","MEAN_MOTION_DDOT":"0.0000000000000","REV_AT_EPOCH":"9162","TLE_LINE1":"1 45750U 20038W   22037.82562416 -.00005082  00000-0 -32268-3 0  9993","COUNTRY_CODE":"US","ARG_OF_PERICENTER":"63.5678","PERIOD":"95.593","OBJECT_TYPE":"PAYLOAD","APOAPSIS":"548.309","EPHEMERIS_TYPE":"0","EPOCH":"2022-02-06T19:48:53.927424","TLE_LINE2":"2 45750  53.0535  73.8628 0001500  63.5678 296.5465 15.06381451 91628","DECAY_DATE":null,"INCLINATION":"53.0535","LAUNCH_DATE":"2020-06-13","BSTAR":"-0.00032268000000","MEAN_MOTION":"15.06381451","CENTER_NAME":"EARTH","OBJECT_ID":"2020-038W","MEAN_ELEMENT_THEORY":"SGP4","MEAN_ANOMALY":"296.5465","ELEMENT_SET_NO":"999","PERIAPSIS":"546.232","TIME_SYSTEM":"UTC","NORAD_CAT_ID":"45750","SEMIMAJOR_AXIS":"6925.405","REF_FRAME":"TEME","GP_ID":"195441793","CLASSIFICATION_TYPE":"U"},{"DECAY_DATE":null,"MEAN_MOTION":"15.06394875","BSTAR":"-0.00004658500000","LAUNCH_DATE":"2020-06-13","INCLINATION":"53.0556","OBJECT_ID":"2020-038X","CENTER_NAME":"EARTH","MEAN_ELEMENT_THEORY":"SGP4","MEAN_ANOMALY":"302.5893","ELEMENT_SET_NO":"999","PERIAPSIS":"546.103","TIME_SYSTEM":"UTC","SEMIMAJOR_AXIS":"6925.364","NORAD_CAT_ID":"45751","CLASSIFICATION_TYPE":"U","GP_ID":"195441544","REF_FRAME":"TEME","RCS_SIZE":"LARGE","RA_OF_ASC_NODE":"73.5713","FILE":"3293822","OBJECT_NAME":"STARLINK-1464","SITE":"AFETR","MEAN_MOTION_DOT":"-0.00000975","ECCENTRICITY":"0.00016260","REV_AT_EPOCH":"9163","MEAN_MOTION_DDOT":"0.0000000000000","COUNTRY_CODE":"US","TLE_LINE1":"1 45751U 20038X   22037.88828725 -.00000975  00000-0 -46585-4 0  9992","PERIOD":"95.592","ARG_OF_PERICENTER":"57.5253","OBJECT_TYPE":"PAYLOAD","APOAPSIS":"548.355","TLE_LINE2":"2 45751  53.0556  73.5713 0001626  57.5253 302.5893 15.06394875 91633","EPOCH":"2022-02-06T21:19:08.018400","EPHEMERIS_TYPE":"0"},{"PERIOD":"91.089","ARG_OF_PERICENTER":"323.4195","MEAN_MOTION_DDOT":"0.0000000000000","REV_AT_EPOCH":"9503","TLE_LINE1":"1 45752U 20038Y   22037.87404061  .00089268  00000-0  45050-3 0  9990","COUNTRY_CODE":"US","APOAPSIS":"332.767","EPHEMERIS_TYPE":"0","TLE_LINE2":"2 45752  53.0024 187.8740 0007128 323.4195  36.6338 15.80868006 95037","EPOCH":"2022-02-06T20:58:37.108704","OBJECT_TYPE":"PAYLOAD","FILE":"3293822","SITE":"AFETR","OBJECT_NAME":"STARLINK-1469","MEAN_MOTION_DOT":"0.00089268","RCS_SIZE":"LARGE","RA_OF_ASC_NODE":"187.8740","ECCENTRICITY":"0.00071280","PERIAPSIS":"323.207","TIME_SYSTEM":"UTC","MEAN_ANOMALY":"36.6338","ELEMENT_SET_NO":"999","NORAD_CAT_ID":"45752","SEMIMAJOR_AXIS":"6706.122","GP_ID":"195440292","REF_FRAME":"TEME","CLASSIFICATION_TYPE":"U","DECAY_DATE":null,"LAUNCH_DATE":"2020-06-13","INCLINATION":"53.0024","BSTAR":"0.00045050000000","MEAN_MOTION":"15.80868006","CENTER_NAME":"EARTH","OBJECT_ID":"2020-038Y","MEAN_ELEMENT_THEORY":"SGP4"}];
